{"type": "FeatureCollection", "features": [ {"type": "Feature", "properties": {"norad_id": 40534, "name": "GPS BIIF-9  (PRN 26)", "group": "gps-ops", "lat": 32.18023335257025, "lon": -119.77682399596728, "alt_km": 19894.730504948555, "timestamp": "2025-12-07T03:52:32.755296+00:00", "meta": {"OBJECT_NAME": "GPS BIIF-9  (PRN 26)", "OBJECT_ID": "2015-013A", "EPOCH": "2025-12-06T14:33:06.415200", "MEAN_MOTION": 2.0056283, "ECCENTRICITY": 0.010678, "INCLINATION": 53.1987, "RA_OF_ASC_NODE": 212.1443, "ARG_OF_PERICENTER": 38.3324, "MEAN_ANOMALY": 322.5165, "EPHEMERIS_TYPE": 0, "CLASSIFICATION_TYPE": "U", "NORAD_CAT_ID": 40534, "ELEMENT_SET_NO": 999, "REV_AT_EPOCH": 7796, "BSTAR": 0, "MEAN_MOTION_DOT": 4.8e-07, "MEAN_MOTION_DDOT": 0}, "tle": {"line1": "1 40534U 15013A   25340.60632425  .00000048  00000+0  00000+0 0  9998", "line2": "2 40534  53.1987 212.1443 0106780  38.3324 322.5165  2.00562830 77962"}}, "geometry": {"type": "Point", "coordinates": [-119.77682399596728, 32.18023335257025]}}, {"type": "Feature", "properties": {"norad_id": 40730, "name": "GPS BIIF-10 (PRN 08)", "group": "gps-ops", "lat": -51.95388973494223, "lon": -152.39121109079156, "alt_km": 20249.96952864478, "timestamp": "2025-12-07T03:52:32.755307+00:00", "meta": {"OBJECT_NAME": "GPS BIIF-10 (PRN 08)", "OBJECT_ID": "2015-033A", "EPOCH": "2025-12-06T06:27:28.952640", "MEAN_MOTION": 2.00565778, "ECCENTRICITY": 0.01105625, "INCLINATION": 54.1364, "RA_OF_ASC_NODE": 275.0391, "ARG_OF_PERICENTER": 26.649, "MEAN_ANOMALY": 333.9251, "EPHEMERIS_TYPE": 0, "CLASSIFICATION_TYPE": "U", "NORAD_CAT_ID": 40730, "ELEMENT_SET_NO": 999, "REV_AT_EPOCH": 7612, "BSTAR": 0, "MEAN_MOTION_DOT": -3e-07, "MEAN_MOTION_DDOT": 0}, "tle": {"line1": "1 40730U 15033A   25340.26908510 -.00000030  00000+0  00000+0 0  9993", "line2": "2 40730  54.1364 275.0391 0110562  26.6490 333.9251  2.00565778 76120"}}, "geometry": {"type": "Point", "coordinates": [-152.39121109079156, -51.95388973494223]}}, {"type": "Feature", "properties": {"norad_id": 41019, "name": "GPS BIIF-11 (PRN 10)", "group": "gps-ops", "lat": -46.95172606930843, "lon": -97.36744095105404, "alt_km": 19898.116585077, "timestamp": "2025-12-07T03:52:32.755319+00:00", "meta": {"OBJECT_NAME": "GPS BIIF-11 (PRN 10)", "OBJECT_ID": "2015-062A", "EPOCH": "2025-12-06T07:52:58.423872", "MEAN_MOTION": 2.0056703, "ECCENTRICITY": 0.01106332, "INCLINATION": 56.8275, "RA_OF_ASC_NODE": 38.2504, "ARG_OF_PERICENTER": 229.7544, "MEAN_ANOMALY": 129.3288, "EPHEMERIS_TYPE": 0, "CLASSIFICATION_TYPE": "U", "NORAD_CAT_ID": 41019, "ELEMENT_SET_NO": 999, "REV_AT_EPOCH": 7396, "BSTAR": 0, "MEAN_MOTION_DOT": -6.9e-07, "MEAN_MOTION_DDOT": 0}, "tle": {"line1": "1 41019U 15062A   25340.32845398 -.00000069  00000+0  00000+0 0  9999", "line2": "2 41019  56.8275  38.2504 0110633 229.7544 129.3288  2.00567030 73960"}}, "geometry": {"type": "Point", "coordinates": [-97.36744095105404, -46.95172606930843]}}, {"type": "Feature", "properties": {"norad_id": 41328, "name": "GPS BIIF-12 (PRN 32)", "group": "gps-ops", "lat": -0.16473149413795626, "lon": -82.8158089878581, "alt_km": 20071.099790512395, "timestamp": "2025-12-07T03:52:32.755331+00:00", "meta": {"OBJECT_NAME": "GPS BIIF-12 (PRN 32)", "OBJECT_ID": "2016-007A", "EPOCH": "2025-12-05T09:55:37.612128", "MEAN_MOTION": 2.00560998, "ECCENTRICITY": 0.00917952, "INCLINATION": 55.402, "RA_OF_ASC_NODE": 97.1478, "ARG_OF_PERICENTER": 243.3887, "MEAN_ANOMALY": 115.6411, "EPHEMERIS_TYPE": 0, "CLASSIFICATION_TYPE": "U", "NORAD_CAT_ID": 41328, "ELEMENT_SET_NO": 999, "REV_AT_EPOCH": 7195, "BSTAR": 0, "MEAN_MOTION_DOT": -1.1e-07, "MEAN_MOTION_DDOT": 0}, "tle": {"line1": "1 41328U 16007A   25339.41362977 -.00000011  00000+0  00000+0 0  9994", "line2": "2 41328  55.4020  97.1478 0091795 243.3887 115.6411  2.00560998 71958"}}, "geometry": {"type": "Point", "coordinates": [-82.8158089878581, -0.16473149413795626]}}, {"type": "Feature", "properties": {"norad_id": 43873, "name": "GPS BIII-1  (PRN 04)", "group": "gps-ops", "lat": 53.00114538325146, "lon": 165.19563996986338, "alt_km": 20224.74932855795, "timestamp": "2025-12-07T03:52:32.755343+00:00", "meta": {"OBJECT_NAME": "GPS BIII-1  (PRN 04)", "OBJECT_ID": "2018-109A", "EPOCH": "2025-12-06T13:44:13.581888", "MEAN_MOTION": 2.00553236, "ECCENTRICITY": 0.00371783, "INCLINATION": 55.5639, "RA_OF_ASC_NODE": 99.7903, "ARG_OF_PERICENTER": 194.7301, "MEAN_ANOMALY": 175.7639, "EPHEMERIS_TYPE": 0, "CLASSIFICATION_TYPE": "U", "NORAD_CAT_ID": 43873, "ELEMENT_SET_NO": 999, "REV_AT_EPOCH": 5121, "BSTAR": 0, "MEAN_MOTION_DOT": -4e-08, "MEAN_MOTION_DDOT": 0}, "tle": {"line1": "1 43873U 18109A   25340.57237942 -.00000004  00000+0  00000+0 0  9990", "line2": "2 43873  55.5639  99.7903 0037178 194.7301 175.7639  2.00553236 51211"}}, "geometry": {"type": "Point", "coordinates": [165.19563996986338, 53.00114538325146]}}, {"type": "Feature", "properties": {"norad_id": 44506, "name": "GPS BIII-2  (PRN 18)", "group": "gps-ops", "lat": -21.99909088873947, "lon": -37.225839491084834, "alt_km": 20291.957388669583, "timestamp": "2025-12-07T03:52:32.755355+00:00", "meta": {"OBJECT_NAME": "GPS BIII-2  (PRN 18)", "OBJECT_ID": "2019-056A", "EPOCH": "2025-12-06T10:33:28.812384", "MEAN_MOTION": 2.00565693, "ECCENTRICITY": 0.00577848, "INCLINATION": 55.7237, "RA_OF_ASC_NODE": 338.8025, "ARG_OF_PERICENTER": 198.47, "MEAN_ANOMALY": 333.0886, "EPHEMERIS_TYPE": 0, "CLASSIFICATION_TYPE": "U", "NORAD_CAT_ID": 44506, "ELEMENT_SET_NO": 999, "REV_AT_EPOCH": 4620, "BSTAR": 0, "MEAN_MOTION_DOT": -8e-07, "MEAN_MOTION_DDOT": 0}, "tle": {"line1": "1 44506U 19056A   25340.43991681 -.00000080  00000+0  00000+0 0  9992", "line2": "2 44506  55.7237 338.8025 0057784 198.4700 333.0886  2.00565693 46208"}}, "geometry": {"type": "Point", "coordinates": [-37.225839491084834, -21.99909088873947]}}, {"type": "Feature", "properties": {"norad_id": 45854, "name": "GPS BIII-3  (PRN 23)", "group": "gps-ops", "lat": -55.838665243137264, "lon": -40.36445922184469, "alt_km": 20143.483918420487, "timestamp": "2025-12-07T03:52:32.755366+00:00", "meta": {"OBJECT_NAME": "GPS BIII-3  (PRN 23)", "OBJECT_ID": "2020-041A", "EPOCH": "2025-12-06T06:48:20.878272", "MEAN_MOTION": 2.00561679, "ECCENTRICITY": 0.00603304, "INCLINATION": 56.5425, "RA_OF_ASC_NODE": 36.4371, "ARG_OF_PERICENTER": 203.1563, "MEAN_ANOMALY": 159.699, "EPHEMERIS_TYPE": 0, "CLASSIFICATION_TYPE": "U", "NORAD_CAT_ID": 45854, "ELEMENT_SET_NO": 999, "REV_AT_EPOCH": 4017, "BSTAR": 0, "MEAN_MOTION_DOT": -7e-07, "MEAN_MOTION_DDOT": 0}, "tle": {"line1": "1 45854U 20041A   25340.28357498 -.00000070  00000+0  00000+0 0  9999", "line2": "2 45854  56.5425  36.4371 0060330 203.1563 159.6990  2.00561679 40178"}}, "geometry": {"type": "Point", "coordinates": [-40.36445922184469, -55.838665243137264]}}, {"type": "Feature", "properties": {"norad_id": 46826, "name": "GPS BIII-4  (PRN 14)", "group": "gps-ops", "lat": -48.62914663959354, "lon": 94.10374555225526, "alt_km": 20063.80915448738, "timestamp": "2025-12-07T03:52:32.755378+00:00", "meta": {"OBJECT_NAME": "GPS BIII-4  (PRN 14)", "OBJECT_ID": "2020-078A", "EPOCH": "2025-11-12T03:01:29.191584", "MEAN_MOTION": 2.00567032, "ECCENTRICITY": 0.00639112, "INCLINATION": 54.0223, "RA_OF_ASC_NODE": 219.5836, "ARG_OF_PERICENTER": 203.4986, "MEAN_ANOMALY": 326.7753, "EPHEMERIS_TYPE": 0, "CLASSIFICATION_TYPE": "U", "NORAD_CAT_ID": 46826, "ELEMENT_SET_NO": 999, "REV_AT_EPOCH": 3715, "BSTAR": 0, "MEAN_MOTION_DOT": -3.4e-07, "MEAN_MOTION_DDOT": 0}, "tle": {"line1": "1 46826U 20078A   25316.12603231 -.00000034  00000+0  00000+0 0  9994", "line2": "2 46826  54.0223 219.5836 0063911 203.4986 326.7753  2.00567032 37154"}}, "geometry": {"type": "Point", "coordinates": [94.10374555225526, -48.62914663959354]}}, {"type": "Feature", "properties": {"norad_id": 48859, "name": "GPS BIII-5  (PRN 11)", "group": "gps-ops", "lat": 51.83103359011295, "lon": 42.16248525933133, "alt_km": 20238.55037835102, "timestamp": "2025-12-07T03:52:32.755390+00:00", "meta": {"OBJECT_NAME": "GPS BIII-5  (PRN 11)", "OBJECT_ID": "2021-054A", "EPOCH": "2025-11-30T17:12:22.002912", "MEAN_MOTION": 2.00553932, "ECCENTRICITY": 0.0024653, "INCLINATION": 55.2606, "RA_OF_ASC_NODE": 340.4377, "ARG_OF_PERICENTER": 232.9477, "MEAN_ANOMALY": 227.2059, "EPHEMERIS_TYPE": 0, "CLASSIFICATION_TYPE": "U", "NORAD_CAT_ID": 48859, "ELEMENT_SET_NO": 999, "REV_AT_EPOCH": 3277, "BSTAR": 0, "MEAN_MOTION_DOT": -5.5e-07, "MEAN_MOTION_DDOT": 0}, "tle": {"line1": "1 48859U 21054A   25334.71692133 -.00000055  00000+0  00000+0 0  9994", "line2": "2 48859  55.2606 340.4377 0024653 232.9477 227.2059  2.00553932 32777"}}, "geometry": {"type": "Point", "coordinates": [42.16248525933133, 51.83103359011295]}}, {"type": "Feature", "properties": {"norad_id": 55268, "name": "GPS BIII-6  (PRN 28)", "group": "gps-ops", "lat": 47.66944894393737, "lon": -73.98649523703955, "alt_km": 20181.536883638815, "timestamp": "2025-12-07T03:52:32.755402+00:00", "meta": {"OBJECT_NAME": "GPS BIII-6  (PRN 28)", "OBJECT_ID": "2023-009A", "EPOCH": "2025-12-03T18:12:38.807136", "MEAN_MOTION": 2.00556312, "ECCENTRICITY": 0.00036355, "INCLINATION": 55.1062, "RA_OF_ASC_NODE": 156.1984, "ARG_OF_PERICENTER": 358.5946, "MEAN_ANOMALY": 180.1179, "EPHEMERIS_TYPE": 0, "CLASSIFICATION_TYPE": "U", "NORAD_CAT_ID": 55268, "ELEMENT_SET_NO": 999, "REV_AT_EPOCH": 2132, "BSTAR": 0, "MEAN_MOTION_DOT": 9.9e-07, "MEAN_MOTION_DDOT": 0}, "tle": {"line1": "1 55268U 23009A   25337.75878249  .00000099  00000+0  00000+0 0  9996", "line2": "2 55268  55.1062 156.1984 0003635 358.5946 180.1179  2.00556312 21327"}}, "geometry": {"type": "Point", "coordinates": [-73.98649523703955, 47.66944894393737]}}]}